NORAD_CAT_ID,OBJECT_NAME,OBJECT_TYPE,EPOCH,MEAN_MOTION,ECCENTRICITY,INCLINATION,RA_OF_ASC_NODE,ARG_OF_PERICENTER,MEAN_ANOMALY,BSTAR,MEAN_MOTION_DOT,MEAN_MOTION_DDOT,TLE_LINE0,TLE_LINE1,TLE_LINE2,SEMIMAJOR_AXIS,PERIOD,APOGEE,PERIGEE,DECAYED
50817.0,STARLINK-3341,PAYLOAD,2023-02-08 13:26:15,15.08840149,0.0001532,53.2149,180.0313,86.5582,273.5585,-0.00010962,-2.032e-05,0.0,0 STARLINK-3341,1 50817U 22001Q   23039.55990440 -.00002032  00000-0 -10962-3 0  9999,2 50817  53.2149 180.0313 0001532  86.5582 273.5585 15.08840149 60559,6917.88,95.438,540.805,538.685,0.0
50817.0,STARLINK-3341,PAYLOAD,2023-02-08 15:01:38,15.08840426,0.0001576,53.215,179.7342,85.6245,274.4927,-9.0076e-05,-1.721e-05,0.0,0 STARLINK-3341,1 50817U 22001Q   23039.62614425 -.00001721  00000-0 -90076-4 0  9992,2 50817  53.2150 179.7342 0001576  85.6245 274.4927 15.08840426 61810,6917.879,95.438,540.834,538.654,0.0
50817.0,STARLINK-3341,PAYLOAD,2023-02-08 18:12:24,15.08853673,8.87e-05,53.2145,179.1331,112.6763,247.4323,0.00010345,1.36e-05,0.0,0 STARLINK-3341,1 50817U 22001Q   23039.75861169  .00001360  00000-0  10345-3 0  9992,2 50817  53.2145 179.1331 0000887 112.6763 247.4323 15.08853673 61836,6917.839,95.437,540.317,539.09,0.0
50817.0,STARLINK-3341,PAYLOAD,2023-02-09 02:09:20,15.08836854,0.0001231,53.2151,177.6491,89.7611,270.3522,-0.00012483,-2.274e-05,0.0,0 STARLINK-3341,1 50817U 22001Q   23040.08982441 -.00002274  00000-0 -12483-3 0  9999,2 50817  53.2151 177.6491 0001231  89.7611 270.3522 15.08836854 61886,6917.89,95.438,540.607,538.903,0.0
50817.0,STARLINK-3341,PAYLOAD,2023-02-09 19:38:35,15.08844988,0.0001156,53.2145,174.3789,95.2395,264.8729,0.00019948,2.889e-05,0.0,0 STARLINK-3341,1 50817U 22001Q   23040.81846422  .00002889  00000-0  19948-3 0  9991,2 50817  53.2145 174.3789 0001156  95.2395 264.8729 15.08844988 60748,6917.865,95.437,540.53,538.93,0.0
50817.0,STARLINK-3341,PAYLOAD,2023-02-10 02:00:08,15.0882973,5.12e-05,53.2145,173.1894,123.0776,237.0265,-7.671e-05,-1.508e-05,0.0,0 STARLINK-3341,1 50817U 22001Q   23041.08342883 -.00001508  00000-0 -76710-4 0  9993,2 50817  53.2145 173.1894 0000512 123.0776 237.0265 15.08829730 60789,6917.912,95.438,540.131,539.423,0.0
50817.0,STARLINK-3341,PAYLOAD,2023-02-10 14:43:13,15.08842824,0.0001247,53.2142,170.8099,78.7137,281.3995,0.00031372,4.709e-05,0.0,0 STARLINK-3341,1 50817U 22001Q   23041.61334908  .00004709  00000-0  31372-3 0  9999,2 50817  53.2142 170.8099 0001247  78.7137 281.3995 15.08842824 62110,6917.872,95.437,540.599,538.874,0.0
50817.0,STARLINK-3341,PAYLOAD,2023-02-10 17:53:58,15.08868193,0.0001221,53.214,170.2159,88.632,271.4812,0.00093206,0.00014588,0.0,0 STARLINK-3341,1 50817U 22001Q   23041.74581889  .00014588  00000-0  93206-3 0  9995,2 50817  53.2140 170.2159 0001221  88.6320 271.4812 15.08868193 62132,6917.794,95.436,540.504,538.815,0.0
50817.0,STARLINK-3341,PAYLOAD,2023-02-10 19:29:21,15.08876409,0.0001125,53.2141,169.9189,92.4152,267.6969,0.0015183,0.00023982,0.0,0 STARLINK-3341,1 50817U 22001Q   23041.81206018  .00023982  00000-0  15183-2 0  9996,2 50817  53.2141 169.9189 0001125  92.4152 267.6969 15.08876409 60890,6917.769,95.435,540.412,538.856,0.0
50817.0,STARLINK-3341,PAYLOAD,2023-02-11 01:50:55,15.08834454,0.0001233,53.2134,168.729,109.4388,250.6737,-0.00027325,-4.633e-05,0.0,0 STARLINK-3341,1 50817U 22001Q   23042.07702770 -.00004633  00000-0 -27325-3 0  9997,2 50817  53.2134 168.7290 0001233 109.4388 250.6737 15.08834454 62185,6917.897,95.438,540.615,538.909,0.0
50817.0,STARLINK-3341,PAYLOAD,2023-02-11 12:58:37,15.08841456,0.0001311,53.2138,166.6474,115.4312,244.6816,0.00026604,3.949e-05,0.0,0 STARLINK-3341,1 50817U 22001Q   23042.54070905  .00003949  00000-0  26604-3 0  9993,2 50817  53.2138 166.6474 0001311 115.4312 244.6816 15.08841456 61002,6917.876,95.437,540.648,538.834,0.0
50817.0,STARLINK-3341,PAYLOAD,2023-02-11 19:20:09,15.08855042,0.0001493,53.2134,165.4572,126.5669,233.5461,0.0021507,0.00034121,0.0,0 STARLINK-3341,1 50817U 22001Q   23042.80566926  .00034121  00000-0  21507-2 0  9997,2 50817  53.2134 165.4572 0001493 126.5669 233.5461 15.08855042 62294,6917.834,95.437,540.732,538.667,0.0
50817.0,STARLINK-3341,PAYLOAD,2023-02-12 14:24:47,15.08868323,0.0001511,53.2136,161.8894,98.8278,261.2886,0.002816,0.00044849,0.0,0 STARLINK-3341,1 50817U 22001Q   23043.60055519  .00044849  00000-0  28160-2 0  9997,2 50817  53.2136 161.8894 0001511  98.8278 261.2886 15.08868323 62410,6917.794,95.436,540.704,538.614,0.0
50817.0,STARLINK-3341,PAYLOAD,2023-02-12 19:10:57,15.0887406,0.0001072,53.2136,160.997,88.2169,271.8946,0.0027615,0.00043977,0.0,0 STARLINK-3341,1 50817U 22001Q   23043.79927205  .00043977  00000-0  27615-2 0  9992,2 50817  53.2136 160.9970 0001072  88.2169 271.8946 15.08874060 62441,6917.776,95.435,540.383,538.9,0.0
50817.0,STARLINK-3341,PAYLOAD,2023-02-13 14:15:34,15.08864983,0.0001638,53.2137,157.4283,78.7835,281.3341,0.0021881,0.00034732,0.0,0 STARLINK-3341,1 50817U 22001Q   23044.59415468  .00034732  00000-0  21881-2 0  9992,2 50817  53.2137 157.4283 0001638  78.7835 281.3341 15.08864983 62563,6917.804,95.436,540.802,538.536,0.0
50817.0,STARLINK-3341,PAYLOAD,2023-02-13 23:47:54,15.08823137,0.0004006,53.2135,155.6434,66.1726,293.9686,0.00071359,0.00011082,0.0,0 STARLINK-3341,1 50817U 22001Q   23044.99160368  .00011082  00000-0  71359-3 0  9991,2 50817  53.2135 155.6434 0004006  66.1726 293.9686 15.08823137 62625,6917.932,95.439,542.568,537.026,0.0
50817.0,STARLINK-3341,PAYLOAD,2023-02-14 07:44:49,15.08847608,5.86e-05,53.2165,154.1575,75.9956,284.1102,0.00078536,0.00012236,0.0,0 STARLINK-3341,1 50817U 22001Q   23045.32279238  .00012236  00000-0  78536-3 0  9992,2 50817  53.2165 154.1575 0000586  75.9956 284.1102 15.08847608 62679,6917.857,95.437,540.128,539.317,0.0
50817.0,STARLINK-3341,PAYLOAD,2023-02-14 14:06:21,15.08878422,0.0001102,53.2138,152.9675,83.3216,276.7902,0.0030953,0.00049371,0.0,0 STARLINK-3341,1 50817U 22001Q   23045.58774971  .00049371  00000-0  30953-2 0  9994,2 50817  53.2138 152.9675 0001102  83.3216 276.7902 15.08878422 61462,6917.763,95.435,540.39,538.866,0.0
50817.0,STARLINK-3341,PAYLOAD,2023-02-14 18:52:30,15.08897534,0.0001,53.2134,152.0761,80.3012,279.8093,0.0032406,0.00051747,0.0,0 STARLINK-3341,1 50817U 22001Q   23045.78646416  .00051747  00000-0  32406-2 0  9993,2 50817  53.2134 152.0761 0001000  80.3012 279.8093 15.08897534 62745,6917.705,95.434,540.261,538.878,0.0
50817.0,STARLINK-3341,PAYLOAD,2023-02-15 13:57:08,15.08878528,0.0001032,53.2136,148.5077,99.8914,260.2194,0.0047272,0.00075836,0.0,0 STARLINK-3341,1 50817U 22001Q   23046.58134900  .00075836  00000-0  47272-2 0  9994,2 50817  53.2136 148.5077 0001032  99.8914 260.2194 15.08878528 62869,6917.763,95.435,540.342,538.914,0.0
50817.0,STARLINK-3341,PAYLOAD,2023-02-15 17:07:54,15.08896539,0.0001052,53.2136,147.9124,98.1961,261.9151,0.0042864,0.00068702,0.0,0 STARLINK-3341,1 50817U 22001Q   23046.71382461  .00068702  00000-0  42864-2 0  9992,2 50817  53.2136 147.9124 0001052  98.1961 261.9151 15.08896539 61638,6917.708,95.434,540.3,538.845,0.0
50817.0,STARLINK-3341,PAYLOAD,2023-02-16 12:12:32,15.0887342,0.0001425,53.2138,144.3437,103.1179,256.9972,0.0027705,0.00044121,0.0,0 STARLINK-3341,1 50817U 22001Q   23047.50870426  .00044121  00000-0  27705-2 0  9999,2 50817  53.2138 144.3437 0001425 103.1179 256.9972 15.08873420 61752,6917.778,95.435,540.629,538.657,0.0
50817.0,STARLINK-3341,PAYLOAD,2023-02-16 15:23:18,15.08867258,0.0001658,53.2133,143.748,86.6732,273.445,0.0016432,0.0002598,0.0,0 STARLINK-3341,1 50817U 22001Q   23047.64118309  .00025980  00000-0  16432-2 0  9996,2 50817  53.2133 143.7480 0001658  86.6732 273.4450 15.08867258 63025,6917.797,95.436,540.809,538.515,0.0
50817.0,STARLINK-3341,PAYLOAD,2023-02-17 10:27:56,15.08823199,0.0001238,53.2143,140.1811,118.7195,241.3922,0.00083772,0.00013063,0.0,0 STARLINK-3341,1 50817U 22001Q   23048.43607444  .00013063  00000-0  83772-3 0  9998,2 50817  53.2143 140.1811 0001238 118.7195 241.3922 15.08823199 63146,6917.932,95.439,540.653,538.94,0.0
50817.0,STARLINK-3341,PAYLOAD,2023-02-17 18:24:52,15.08836566,0.0001049,53.2129,138.6929,148.8644,211.241,0.0012431,0.00019549,0.0,0 STARLINK-3341,1 50817U 22001Q   23048.76727458  .00019549  00000-0  12431-2 0  9990,2 50817  53.2129 138.6929 0001049 148.8644 211.2410 15.08836566 61941,6917.891,95.438,540.482,539.03,0.0
50817.0,STARLINK-3341,PAYLOAD,2023-02-18 11:54:08,15.08822683,7.78e-05,53.2147,135.4227,119.9372,240.1698,0.0006164,9.531e-05,0.0,0 STARLINK-3341,1 50817U 22001Q   23049.49592914  .00009531  00000-0  61640-3 0  9995,2 50817  53.2147 135.4227 0000778 119.9372 240.1698 15.08822683 63308,6917.933,95.439,540.337,539.26,0.0
50817.0,STARLINK-3341,PAYLOAD,2023-02-18 18:15:40,15.0883565,0.0001742,53.2143,134.229,124.5239,235.5917,0.0013394,0.0002109,0.0,0 STARLINK-3341,1 50817U 22001Q   23049.76089034  .00021090  00000-0  13394-2 0  9995,2 50817  53.2143 134.2290 0001742 124.5239 235.5917 15.08835650 63341,6917.894,95.438,540.964,538.554,0.0
50817.0,STARLINK-3341,PAYLOAD,2023-02-18 23:01:50,15.08835122,5.12e-05,53.2147,133.3414,133.9449,226.1585,0.00038204,5.797e-05,0.0,0 STARLINK-3341,1 50817U 22001Q   23049.95960794  .00005797  00000-0  38204-3 0  9991,2 50817  53.2147 133.3414 0000512 133.9449 226.1585 15.08835122 63378,6917.895,95.438,540.114,539.406,0.0
50817.0,STARLINK-3341,PAYLOAD,2023-02-19 11:44:55,15.08851851,6.54e-05,53.2135,130.963,99.0981,261.0085,0.0014133,0.00022284,0.0,0 STARLINK-3341,1 50817U 22001Q   23050.48952827  .00022284  00000-0  14133-2 0  9993,2 50817  53.2135 130.9630 0000654  99.0981 261.0085 15.08851851 62209,6917.844,95.437,540.162,539.257,0.0
50817.0,STARLINK-3341,PAYLOAD,2023-02-20 08:24:55,15.08848941,0.0001321,53.2145,127.0949,109.7787,250.3347,0.00019074,2.75e-05,0.0,0 STARLINK-3341,1 50817U 22001Q   23051.35064361  .00002750  00000-0  19074-3 0  9993,2 50817  53.2145 127.0949 0001321 109.7787 250.3347 15.08848941 63585,6917.853,95.437,540.632,538.804,0.0
